{
  "type": "FeatureCollection",
  "features": [
    {
      "type": "Feature",
      "geometry": {
        "type": "Polygon",
        "coordinates": [
          [
            [
              -110.70767110896574,
              51.74589607953231
            ],
            [
              -110.70628910392597,
              51.745928664285714
            ],
            [
              -110.62927246045129,
              51.745928664285714
            ],
            [
              -110.62777907030471,
              51.74589120506251
            ],
            [
              -110.6266189114776,
              51.74495675448588
            ],
            [
              -110.49891445426779,
              51.636914575855336
            ],
            [
              -110.49786804792299,
              51.63598411366053
            ],
            [
              -110.49925264123378,
              51.63577682596326
            ],
            [
              -110.57633648437238,
              51.62614272226485
            ],
            [
              -110.57776317192233,
              51.625999317401266
            ],
            [
              -110.57884004243351,
              51.62694607619961
            ],
            [
              -110.70667811923597,
              51.74493359460906
            ],
            [
              -110.70767110896574,
              51.74589607953231
            ]
          ]
        ]
      },
      "properties": {
        "hail_size_bin": "1.0\"",
        "min_size_inches": 1.0
      }
    },
    {
      "type": "Feature",
      "geometry": {
        "type": "Polygon",
        "coordinates": [
          [
            [
              -86.98110645150815,
              36.69020712051934
            ],
            [
              -86.97970320408338,
              36.6906256425508
            ],
            [
              -86.872565269807,
              36.719840904369896
            ],
            [
              -86.87117429432318,
              36.72018422952118
            ],
            [
              -86.87031138175031,
              36.71904485368958
            ],
            [
              -86.7420452237218,
              36.541470932911494
            ],
            [
              -86.74123877370326,
              36.54029457812726
            ],
            [
              -86.74260000498228,
              36.53986950849371
            ],
            [
              -86.94974418183585,
              36.48069391403673
            ],
            [
              -86.95112369218386,
              36.480335968611016
            ],
            [
              -86.95135820599917,
              36.4817405827029
            ],
            [
              -86.98093528318113,
              36.688750541672675
            ],
            [
              -86.98110645150815,
              36.69020712051934
            ]
          ]
        ]
      },
      "properties": {
        "hail_size_bin": "0.5\"",
        "min_size_inches": 0.5
      }
    },
    {
      "type": "Feature",
      "geometry": {
        "type": "Polygon",
        "coordinates": [
          [
            [
              -88.29090482326097,
              35.420462655269965
            ],
            [
              -88.2900896248902,
              35.419390210471335
            ],
            [
              -88.16184841384585,
              35.241850826736034
            ],
            [
              -88.16102774242779,
              35.24065328260774
            ],
            [
              -88.1621513180433,
              35.23973409161761
            ],
            [
              -88.24979649891954,
              35.171575357347876
            ],
            [
              -88.25094134959704,
              35.170729542093135
            ],
            [
              -88.25119947229746,
              35.17212853269197
            ],
            [
              -88.2907249518009,
              35.419127483938546
            ],
            [
              -88.29090482326097,
              35.420462655269965
            ]
          ]
        ]
      },
      "properties": {
        "hail_size_bin": "0.5\"",
        "min_size_inches": 0.5
      }
    },
    {
      "type": "Feature",
      "geometry": {
        "type": "Polygon",
        "coordinates": [
          [
            [
              -89.69070279016094,
              27.862780259161738
            ],
            [
              -89.68995038788916,
              27.86396889056966
            ],
            [
              -89.63158228826957,
              27.951508530761707
            ],
            [
              -89.63077046549282,
              27.952663854413988
            ],
            [
              -89.63006559928844,
              27.951441250523395
            ],
            [
              -89.57147506231183,
              27.844040613399823
            ],
            [
              -89.57083923532944,
              27.84280458399296
            ],
            [
              -89.57221493349427,
              27.84300041909977
            ],
            [
              -89.68932066200732,
              27.862515251888524
            ],
            [
              -89.69070279016094,
              27.862780259161738
            ]
          ]
        ]
      },
      "properties": {
        "hail_size_bin": "0.5\"",
        "min_size_inches": 0.5
      }
    },
    {
      "type": "Feature",
      "geometry": {
        "type": "Polygon",
        "coordinates": [
          [
            [
              -91.3004918261327,
              27.952712648526248
            ],
            [
              -91.29932372116002,
              27.953613585650164
            ],
            [
              -91.15175377002876,
              28.061816087894638
            ],
            [
              -91.15056312677365,
              28.062644405300823
            ],
            [
              -91.1498840995949,
              28.06136408236286
            ],
            [
              -91.10121689911975,
              27.964043588314077
            ],
            [
              -91.10060155062,
              27.962733661394296
            ],
            [
              -91.10162736901755,
              27.96171378603462
            ],
            [
              -91.2894560929341,
              27.783796208491005
            ],
            [
              -91.29050107484704,
              27.782854184631432
            ],
            [
              -91.29061806988248,
              27.784256095345352
            ],
            [
              -91.30044185189386,
              27.951236528373034
            ],
            [
              -91.3004918261327,
              27.952712648526248
            ]
          ]
        ]
      },
      "properties": {
        "hail_size_bin": "0.5\"",
        "min_size_inches": 0.5
      }
    },
    {
      "type": "Feature",
      "geometry": {
        "type": "Polygon",
        "coordinates": [
          [
            [
              -93.50018062118295,
              28.68249295265951
            ],
            [
              -93.49879073233173,
              28.682825979006473
            ],
            [
              -93.22170486142817,
              28.742193039338826
            ],
            [
              -93.2203254747453,
              28.74245311725321
            ],
            [
              -93.22101811650812,
              28.7412324891743
            ],
            [
              -93.27949192996239,
              28.64379005774332
            ],
            [
              -93.28026733747319,
              28.64256670886819
            ],
            [
              -93.28171222914449,
              28.642598784274913
            ],
            [
              -93.49874060262505,
              28.652462300865665
            ],
            [
              -93.50017992214251,
              28.65256324660261
            ],
            [
              -93.50021532857143,
              28.65400557248811
            ],
            [
              -93.50021532857143,
              28.681063824420754
            ],
            [
              -93.50018062118295,
              28.68249295265951
            ]
          ]
        ]
      },
      "properties": {
        "hail_size_bin": "0.5\"",
        "min_size_inches": 0.5
      }
    },
    {
      "type": "Feature",
      "geometry": {
        "type": "Polygon",
        "coordinates": [
          [
            [
              -108.60800895133202,
              29.752252902133215
            ],
            [
              -108.607566346494,
              29.753586752140105
            ],
            [
              -108.55855639288443,
              29.890795015463915
            ],
            [
              -108.55803923015407,
              29.89213836679937
            ],
            [
              -108.55607146062131,
              29.89200622008733
            ],
            [
              -108.55012300708039,
              29.891757320800213
            ],
            [
              -108.54416952964712,
              29.89180376253998
            ],
            [
              -108.5382256829924,
              29.892145430988826
            ],
            [
              -108.5323060980807,
              29.892781485119187
            ],
            [
              -108.52642534615539,
              29.893710359263924
            ],
            [
              -108.52120397607135,
              29.894802944572405
            ],
            [
              -108.52174103715117,
              29.892254615719242
            ],
            [
              -108.52267019033604,
              29.886449640454906
            ],
            [
              -108.52331392491212,
              29.880606125309374
            ],
            [
              -108.52367069586886,
              29.874738095150548
            ],
            [
              -108.52373964692966,
              29.868859633684167
            ],
            [
              -108.52352061260684,
              29.862984849651887
            ],
            [
              -108.523014118599,
              29.85712784296925
            ],
            [
              -108.52222138052912,
              29.851302670884834
            ],
            [
              -108.52114430102712,
              29.845523314241845
            ],
            [
              -108.51978546516337,
              29.839803643923034
            ],
            [
              -108.51814813424426,
              29.834157387559582
            ],
            [
              -108.51623623798496,
              29.828598096583736
            ],
            [
              -108.51405436507764,
              29.823139113704404
            ],
            [
              -108.51160775217845,
              29.817793540883645
            ],
            [
              -108.50890227133902,
              29.812574207891014
            ],
            [
              -108.50594441591318,
              29.807493641511144
            ],
            [
              -108.47884085671026,
              29.763456650603224
            ],
            [
              -108.47813277841598,
              29.76224081979845
            ],
            [
              -108.47953192261738,
              29.762100087108887
            ],
            [
              -108.60660398721878,
              29.752326709504647
            ],
            [
              -108.60800895133202,
              29.752252902133215
            ]
          ]
        ]
      },
      "properties": {
        "hail_size_bin": "0.5\"",
        "min_size_inches": 0.5
      }
    },
    {
      "type": "Feature",
      "geometry": {
        "type": "Polygon",
        "coordinates": [
          [
            [
              -110.73743539684243,
              51.705852979216175
            ],
            [
              -110.73631434344298,
              51.70567057587344
            ],
            [
              -110.4192561784095,
              51.64623066377273
            ],
            [
              -110.41781544320692,
              51.645923503292686
            ],
            [
              -110.41690729001849,
              51.64477019184169
            ],
            [
              -110.35869508608481,
              51.56716500955351
            ],
            [
              -110.35790177315135,
              51.566051158913815
            ],
            [
              -110.35919618766086,
              51.56649209776395
            ],
            [
              -110.73637945880671,
              51.705434500966476
            ],
            [
              -110.73743539684243,
              51.705852979216175
            ]
          ]
        ]
      },
      "properties": {
        "hail_size_bin": "0.5\"",
        "min_size_inches": 0.5
      }
    }
  ]
}