{
  "type": "FeatureCollection",
  "features": [
    {
      "type": "Feature",
      "geometry": {
        "type": "Polygon",
        "coordinates": [
          [
            [
              -116.01695043970487,
              53.67536869007635
            ],
            [
              -116.01576372601106,
              53.67614820556518
            ],
            [
              -115.93826132623413,
              53.724580284579744
            ],
            [
              -115.93700337016143,
              53.72532398759339
            ],
            [
              -115.93558900314976,
              53.724957245682496
            ],
            [
              -115.86844810932436,
              53.70577687399722
            ],
            [
              -115.86707349332205,
              53.705347083857106
            ],
            [
              -115.86778375359326,
              53.70409415965118
            ],
            [
              -115.89625853937007,
              53.65664296403626
            ],
            [
              -115.89703634864085,
              53.65541594157295
            ],
            [
              -115.89847693308953,
              53.65523669186895
            ],
            [
              -115.99553167300803,
              53.64553260457152
            ],
            [
              -115.99698466671032,
              53.645423345022714
            ],
            [
              -115.99781924636956,
              53.646613846919315
            ],
            [
              -116.01619041996031,
              53.674166670062796
            ],
            [
              -116.01695043970487,
              53.67536869007635
            ]
          ]
        ]
      },
      "properties": {
        "hail_size_bin": "1.5\"",
        "min_size_inches": 1.5
      }
    },
    {
      "type": "Feature",
      "geometry": {
        "type": "Polygon",
        "coordinates": [
          [
            [
              -74.67284774062517,
              39.93924993506011
            ],
            [
              -74.6715033955103,
              39.93887181952719
            ],
            [
              -74.54435902392078,
              39.899756063984974
            ],
            [
              -74.54295290470301,
              39.899284664818396
            ],
            [
              -74.54244974258566,
              39.89789082322853
            ],
            [
              -74.52339341639588,
              39.84073001282323
            ],
            [
              -74.5229829210727,
              39.83938986148409
            ],
            [
              -74.52430289112728,
              39.83986085985179
            ],
            [
              -74.6515528969252,
              39.888796177016346
            ],
            [
              -74.65288506025288,
              39.8893458497162
            ],
            [
              -74.65344828261608,
              39.890666277670434
            ],
            [
              -74.67236084267297,
              39.93794092236166
            ],
            [
              -74.67284774062517,
              39.93924993506011
            ]
          ]
        ]
      },
      "properties": {
        "hail_size_bin": "1.0\"",
        "min_size_inches": 1.0
      }
    },
    {
      "type": "Feature",
      "geometry": {
        "type": "Polygon",
        "coordinates": [
          [
            [
              -110.22750073863676,
              46.89727625657278
            ],
            [
              -110.22634219780525,
              46.897269594690485
            ],
            [
              -109.89940158496465,
              46.88736371892187
            ],
            [
              -109.89788305465457,
              46.88727890786643
            ],
            [
              -109.89655974549652,
              46.88653013265032
            ],
            [
              -109.74916020142506,
              46.7981030422596
            ],
            [
              -109.74806715316318,
              46.79741015581348
            ],
            [
              -109.74933962758293,
              46.79764433835363
            ],
            [
              -110.22637268782566,
              46.8970120264628
            ],
            [
              -110.22750073863676,
              46.89727625657278
            ]
          ]
        ]
      },
      "properties": {
        "hail_size_bin": "1.0\"",
        "min_size_inches": 1.0
      }
    },
    {
      "type": "Feature",
      "geometry": {
        "type": "Polygon",
        "coordinates": [
          [
            [
              -110.73770201360031,
              46.53743071012769
            ],
            [
              -110.7369458291006,
              46.53862643643519
            ],
            [
              -110.71856187149172,
              46.56619843286605
            ],
            [
              -110.7177371409623,
              46.5673726474116
            ],
            [
              -110.71631283527911,
              46.56721657291735
            ],
            [
              -110.56923386209517,
              46.5476088450641
            ],
            [
              -110.56783655713427,
              46.54738759085966
            ],
            [
              -110.56863105425879,
              46.54621799936195
            ],
            [
              -110.6169187494773,
              46.47862488497519
            ],
            [
              -110.61778127501572,
              46.47747771299453
            ],
            [
              -110.61907762293391,
              46.4780886845609
            ],
            [
              -110.73645219286841,
              46.536767584432184
            ],
            [
              -110.73770201360031,
              46.53743071012769
            ]
          ]
        ]
      },
      "properties": {
        "hail_size_bin": "1.0\"",
        "min_size_inches": 1.0
      }
    },
    {
      "type": "Feature",
      "geometry": {
        "type": "Polygon",
        "coordinates": [
          [
            [
              -112.89739244385906,
              45.2778128904584
            ],
            [
              -112.89692207483715,
              45.27916727763606
            ],
            [
              -112.86796372602147,
              45.35637850781608
            ],
            [
              -112.86742387535001,
              45.357717235314404
            ],
            [
              -112.86598696702907,
              45.357592288191704
            ],
            [
              -112.77893601195586,
              45.34792134180889
            ],
            [
              -112.77751742866367,
              45.34772810691093
            ],
            [
              -112.77819713800709,
              45.346468472246855
            ],
            [
              -112.81670932294115,
              45.27908177803437
            ],
            [
              -112.81747715387968,
              45.277813087574636
            ],
            [
              -112.81895712456902,
              45.277777420571425
            ],
            [
              -112.895958951566,
              45.277777420571425
            ],
            [
              -112.89739244385906,
              45.2778128904584
            ]
          ]
        ]
      },
      "properties": {
        "hail_size_bin": "1.0\"",
        "min_size_inches": 1.0
      }
    },
    {
      "type": "Feature",
      "geometry": {
        "type": "Polygon",
        "coordinates": [
          [
            [
              -113.41730563540052,
              52.90554746033239
            ],
            [
              -113.41593198833807,
              52.90526562146029
            ],
            [
              -113.28885577375719,
              52.87594453109683
            ],
            [
              -113.28741154058378,
              52.87557286676622
            ],
            [
              -113.28661233348267,
              52.87431381480386
            ],
            [
              -113.25814986921164,
              52.82688315209778
            ],
            [
              -113.25745309294376,
              52.8256546463426
            ],
            [
              -113.25886496609797,
              52.825620062
            ],
            [
              -113.37593065839499,
              52.825620062
            ],
            [
              -113.37735495834254,
              52.825654347542844
            ],
            [
              -113.37802065652419,
              52.82691166933744
            ],
            [
              -113.41670941257783,
              52.904278125934745
            ],
            [
              -113.41730563540052,
              52.90554746033239
            ]
          ]
        ]
      },
      "properties": {
        "hail_size_bin": "1.0\"",
        "min_size_inches": 1.0
      }
    },
    {
      "type": "Feature",
      "geometry": {
        "type": "Polygon",
        "coordinates": [
          [
            [
              -113.05735176513011,
              52.785591672479605
            ],
            [
              -113.05593741058308,
              52.785525573034356
            ],
            [
              -112.91887544975279,
              52.77573683176635
            ],
            [
              -112.91745306306471,
              52.77560090505087
            ],
            [
              -112.9163352473455,
              52.77471344685916
            ],
            [
              -112.85857705122073,
              52.72658849371356
            ],
            [
              -112.85754015315537,
              52.725680645247635
            ],
            [
              -112.85891728919098,
              52.72564863628571
            ],
            [
              -113.0159520336179,
              52.72564863628571
            ],
            [
              -113.01740814085512,
              52.72568441741069
            ],
            [
              -113.01824400038409,
              52.726875162450874
            ],
            [
              -113.05659564594042,
              52.78439441140119
            ],
            [
              -113.05735176513011,
              52.785591672479605
            ]
          ]
        ]
      },
      "properties": {
        "hail_size_bin": "1.0\"",
        "min_size_inches": 1.0
      }
    },
    {
      "type": "Feature",
      "geometry": {
        "type": "Polygon",
        "coordinates": [
          [
            [
              -115.87693662602533,
              53.18555845259216
            ],
            [
              -115.8760367739746,
              53.18660678588338
            ],
            [
              -115.78800722306292,
              53.28440342306606
            ],
            [
              -115.78704917723553,
              53.28541704236121
            ],
            [
              -115.78671362771719,
              53.284063321685345
            ],
            [
              -115.76734920679854,
              53.196935877886666
            ],
            [
              -115.76707531348322,
              53.19554497454344
            ],
            [
              -115.76848351234584,
              53.195382515195256
            ],
            [
              -115.87555757615604,
              53.18564990016531
            ],
            [
              -115.87693662602533,
              53.18555845259216
            ]
          ]
        ]
      },
      "properties": {
        "hail_size_bin": "1.0\"",
        "min_size_inches": 1.0
      }
    },
    {
      "type": "Feature",
      "geometry": {
        "type": "Polygon",
        "coordinates": [
          [
            [
              -116.05693123120719,
              53.5954600262416
            ],
            [
              -116.05644287532222,
              53.59677222275518
            ],
            [
              -116.01753711423765,
              53.69402272856626
            ],
            [
              -116.01697527034734,
              53.69533415496442
            ],
            [
              -116.01555482633728,
              53.69520175867702
            ],
            [
              -115.84848987983968,
              53.67554986730455
            ],
            [
              -115.84715877542226,
              53.67535994041863
            ],
            [
              -115.84840318837084,
              53.6748510250861
            ],
            [
              -116.0556107082346,
              53.59592610525398
            ],
            [
              -116.05693123120719,
              53.5954600262416
            ]
          ]
        ]
      },
      "properties": {
        "hail_size_bin": "1.0\"",
        "min_size_inches": 1.0
      }
    },
    {
      "type": "Feature",
      "geometry": {
        "type": "Polygon",
        "coordinates": [
          [
            [
              -116.51686501829786,
              54.17528485256742
            ],
            [
              -116.51630478871617,
              54.17656549901653
            ],
            [
              -116.44755050019548,
              54.32387506703619
            ],
            [
              -116.44690953683664,
              54.32516587251084
            ],
            [
              -116.44555306885736,
              54.32563593038221
            ],
            [
              -116.16838484479223,
              54.41471298775775
            ],
            [
              -116.16710770405763,
              54.41508895709884
            ],
            [
              -116.1680689172851,
              54.41416809233128
            ],
            [
              -116.39584655906944,
              54.206226916379386
            ],
            [
              -116.39696121485115,
              54.20525880048907
            ],
            [
              -116.39838387273339,
              54.20486563156068
            ],
            [
              -116.51550090437324,
              54.17559055699959
            ],
            [
              -116.51686501829786,
              54.17528485256742
            ]
          ]
        ]
      },
      "properties": {
        "hail_size_bin": "1.0\"",
        "min_size_inches": 1.0
      }
    },
    {
      "type": "Feature",
      "geometry": {
        "type": "Polygon",
        "coordinates": [
          [
            [
              -83.25162979791709,
              22.264338942302462
            ],
            [
              -83.25031234174747,
              22.264867984893225
            ],
            [
              -83.17305017534915,
              22.293837157656476
            ],
            [
              -83.17169025911942,
              22.29430986888017
            ],
            [
              -83.17039329621804,
              22.293697720696677
            ],
            [
              -83.11301332219415,
              22.265011832840017
            ],
            [
              -83.111779035678,
              22.26435654766549
            ],
            [
              -83.11303672255656,
              22.26374766640952
            ],
            [
              -83.22035779459793,
              22.214972330832843
            ],
            [
              -83.22167115787614,
              22.21441349765115
            ],
            [
              -83.22243387171278,
              22.215618793096287
            ],
            [
              -83.25092838925953,
              22.2631028702957
            ],
            [
              -83.25162979791709,
              22.264338942302462
            ]
          ]
        ]
      },
      "properties": {
        "hail_size_bin": "0.5\"",
        "min_size_inches": 0.5
      }
    },
    {
      "type": "Feature",
      "geometry": {
        "type": "Polygon",
        "coordinates": [
          [
            [
              -108.21804528240041,
              45.58773367422354
            ],
            [
              -108.21735356141377,
              45.58895280873947
            ],
            [
              -108.15889020101885,
              45.68637782089407
            ],
            [
              -108.15809838641073,
              45.687625736848595
            ],
            [
              -108.15663015708641,
              45.68778445382994
            ],
            [
              -107.91961579662487,
              45.707532828532315
            ],
            [
              -107.91825098374572,
              45.70761303279605
            ],
            [
              -107.91924461259885,
              45.70667396484199
            ],
            [
              -108.01705552780982,
              45.61865671863834
            ],
            [
              -108.01815708511629,
              45.617712928533024
            ],
            [
              -108.01958424193487,
              45.61746375684878
            ],
            [
              -108.21665427140569,
              45.58790747596084
            ],
            [
              -108.21804528240041,
              45.58773367422354
            ]
          ]
        ]
      },
      "properties": {
        "hail_size_bin": "0.5\"",
        "min_size_inches": 0.5
      }
    },
    {
      "type": "Feature",
      "geometry": {
        "type": "Polygon",
        "coordinates": [
          [
            [
              -110.86769210598436,
              54.725091045847634
            ],
            [
              -110.86726904696332,
              54.72647002178586
            ],
            [
              -110.85819882155516,
              54.75367681021533
            ],
            [
              -110.85770977657515,
              54.75503234211039
            ],
            [
              -110.85627148645952,
              54.75496406849767
            ],
            [
              -110.71922088606108,
              54.74517613857314
            ],
            [
              -110.71783752998927,
              54.74504321664362
            ],
            [
              -110.71886102997809,
              54.74410365477739
            ],
            [
              -110.79662366135146,
              54.67607107404371
            ],
            [
              -110.79774639274629,
              54.67513693661807
            ],
            [
              -110.79895412749569,
              54.675956115426025
            ],
            [
              -110.86653859313931,
              54.72422383638332
            ],
            [
              -110.86769210598436,
              54.725091045847634
            ]
          ]
        ]
      },
      "properties": {
        "hail_size_bin": "0.5\"",
        "min_size_inches": 0.5
      }
    },
    {
      "type": "Feature",
      "geometry": {
        "type": "Polygon",
        "coordinates": [
          [
            [
              -111.71752347199698,
              54.37518245931046
            ],
            [
              -111.71628181377717,
              54.375813222196015
            ],
            [
              -111.4889870598643,
              54.48450387717551
            ],
            [
              -111.48769068469117,
              54.485084754112705
            ],
            [
              -111.48788944399804,
              54.483678162009845
            ],
            [
              -111.51739497411876,
              54.306670275354065
            ],
            [
              -111.51766934890445,
              54.30524408722942
            ],
            [
              -111.51905014420436,
              54.305690457752064
            ],
            [
              -111.71622030962173,
              54.37469015573104
            ],
            [
              -111.71752347199698,
              54.37518245931046
            ]
          ]
        ]
      },
      "properties": {
        "hail_size_bin": "0.5\"",
        "min_size_inches": 0.5
      }
    },
    {
      "type": "Feature",
      "geometry": {
        "type": "Polygon",
        "coordinates": [
          [
            [
              -112.84739416625743,
              49.30666282119958
            ],
            [
              -112.8467991958821,
              49.30792827898232
            ],
            [
              -112.81810716854328,
              49.365304134766355
            ],
            [
              -112.81743609540382,
              49.3665683073252
            ],
            [
              -112.81606252950888,
              49.36617371724144
            ],
            [
              -112.65887738167211,
              49.31706037673935
            ],
            [
              -112.6576547368827,
              49.316645296939804
            ],
            [
              -112.65894209172507,
              49.316545953944264
            ],
            [
              -112.84599633064234,
              49.306702400625085
            ],
            [
              -112.84739416625743,
              49.30666282119958
            ]
          ]
        ]
      },
      "properties": {
        "hail_size_bin": "0.5\"",
        "min_size_inches": 0.5
      }
    },
    {
      "type": "Feature",
      "geometry": {
        "type": "Polygon",
        "coordinates": [
          [
            [
              -112.59942124717003,
              49.30747034752552
            ],
            [
              -112.5942927359532,
              49.30802889302715
            ],
            [
              -112.58827312853536,
              49.30899597650492
            ],
            [
              -112.58231040876731,
              49.310267549108254
            ],
            [
              -112.34900329986887,
              49.36625325499988
            ],
            [
              -112.34751482671386,
              49.36657070409356
            ],
            [
              -112.34602065577783,
              49.366349928392516
            ],
            [
              -111.76899258136973,
              49.266876543901844
            ],
            [
              -111.76761194480045,
              49.26660502936354
            ],
            [
              -111.76636847420168,
              49.26596303981201
            ],
            [
              -111.65891314838734,
              49.20735941825211
            ],
            [
              -111.65777534130683,
              49.20670216204279
            ],
            [
              -111.65908462900963,
              49.206810184740924
            ],
            [
              -112.59602066219077,
              49.30646998963972
            ],
            [
              -112.597480618312,
              49.30666164997422
            ],
            [
              -112.59792005850602,
              49.30683536241722
            ],
            [
              -112.59942124717003,
              49.30747034752552
            ]
          ]
        ]
      },
      "properties": {
        "hail_size_bin": "0.5\"",
        "min_size_inches": 0.5
      }
    },
    {
      "type": "Feature",
      "geometry": {
        "type": "Polygon",
        "coordinates": [
          [
            [
              -112.12734632214129,
              46.337470285309784
            ],
            [
              -112.12609605054898,
              46.33766459083164
            ],
            [
              -111.89901543978348,
              46.36727956901109
            ],
            [
              -111.89760065798025,
              46.367429618664445
            ],
            [
              -111.89672136552883,
              46.36631297108405
            ],
            [
              -111.83847107879537,
              46.288657018984395
            ],
            [
              -111.8376712177449,
              46.287534801498175
            ],
            [
              -111.83903390106904,
              46.28773690492072
            ],
            [
              -112.12610507219453,
              46.33722486269616
            ],
            [
              -112.12734632214129,
              46.337470285309784
            ]
          ]
        ]
      },
      "properties": {
        "hail_size_bin": "0.5\"",
        "min_size_inches": 0.5
      }
    },
    {
      "type": "Feature",
      "geometry": {
        "type": "Polygon",
        "coordinates": [
          [
            [
              -112.39747141358612,
              53.745396999147644
            ],
            [
              -112.3971618079108,
              53.74676889948187
            ],
            [
              -112.38786997620241,
              53.78393091593855
            ],
            [
              -112.38749007372807,
              53.78530725663985
            ],
            [
              -112.38514798812635,
              53.78505278415234
            ],
            [
              -112.37933555887308,
              53.78456385003985
            ],
            [
              -112.37350623715811,
              53.78435794051134
            ],
            [
              -112.36767379612645,
              53.78443554207654
            ],
            [
              -112.36185201629328,
              53.78479647138347
            ],
            [
              -112.35605465298413,
              53.78543987565169
            ],
            [
              -112.35029540383479,
              53.78636423468711
            ],
            [
              -112.34458787642734,
              53.78756736447389
            ],
            [
              -112.3389455561391,
              53.78904642233462
            ],
            [
              -112.33338177428017,
              53.790797913646884
            ],
            [
              -112.32790967659517,
              53.79281770010008
            ],
            [
              -112.32254219220326,
              53.79510100947315
            ],
            [
              -112.31729200305004,
              53.79764244691013
            ],
            [
              -112.31217151394353,
              53.8004360076667
            ],
            [
              -112.3071928232448,
              53.803475091297834
            ],
            [
              -112.30236769428286,
              53.80675251725294
            ],
            [
              -112.29770752756092,
              53.81026054184154
            ],
            [
              -112.29322333382004,
              53.8139908765296
            ],
            [
              -112.28892570802374,
              53.817934707523136
            ],
            [
              -112.28482480432481,
              53.82208271659288
            ],
            [
              -112.28093031207376,
              53.82642510309078
            ],
            [
              -112.27725143292548,
              53.83095160710634
            ],
            [
              -112.27379685909811,
              53.835651533708095
            ],
            [
              -112.27057475283569,
              53.84051377821287
            ],
            [
              -112.26759272712287,
              53.84552685242325
            ],
            [
              -112.26485782769753,
              53.850678911771105
            ],
            [
              -112.238198613373,
              53.903989722413264
            ],
            [
              -112.23751683801679,
              53.905273066134555
            ],
            [
              -112.23607126927237,
              53.905128188276734
            ],
            [
              -112.15899783694663,
              53.89549538574399
            ],
            [
              -112.15761497348107,
              53.89528826722283
            ],
            [
              -112.15848384655222,
              53.894192758920035
            ],
            [
              -112.20658965854223,
              53.836474032421144
            ],
            [
              -112.20819904552533,
              53.83463757705452
            ],
            [
              -112.21185382439802,
              53.83026164361187
            ],
            [
              -112.21529662818241,
              53.82571705295869
            ],
            [
              -112.21851968517882,
              53.82101406394097
            ],
            [
              -112.22151571973848,
              53.81616329296924
            ],
            [
              -112.22427796868745,
              53.81117569005333
            ],
            [
              -112.22680019659357,
              53.8060625140841
            ],
            [
              -112.2290767098423,
              53.8008353074179
            ],
            [
              -112.23110236948918,
              53.795505869821135
            ],
            [
              -112.23287260286048,
              53.79008623183378
            ],
            [
              -112.23438341387539,
              53.78458862761194
            ],
            [
              -112.23563139206668,
              53.77902546731073
            ],
            [
              -112.23661372027938,
              53.77340930906996
            ],
            [
              -112.2373281810302,
              53.76775283066566
            ],
            [
              -112.23757062301574,
              53.76538150278833
            ],
            [
              -112.23899320712037,
              53.76516954510575
            ],
            [
              -112.3960708416441,
              53.74553764614889
            ],
            [
              -112.39747141358612,
              53.745396999147644
            ]
          ]
        ]
      },
      "properties": {
        "hail_size_bin": "0.5\"",
        "min_size_inches": 0.5
      }
    },
    {
      "type": "Feature",
      "geometry": {
        "type": "Polygon",
        "coordinates": [
          [
            [
              -112.51743788345041,
              47.33721641022493
            ],
            [
              -112.51667507507229,
              47.33842246481627
            ],
            [
              -112.45832401638408,
              47.42593654726341
            ],
            [
              -112.45748646312718,
              47.42712819868745
            ],
            [
              -112.4560320496179,
              47.427163073428574
            ],
            [
              -112.42897155992063,
              47.427163073428574
            ],
            [
              -112.42752927880458,
              47.42712794728392
            ],
            [
              -112.42681079425404,
              47.425880459177286
            ],
            [
              -112.36822237755366,
              47.318483708671415
            ],
            [
              -112.36755143911114,
              47.31717885331423
            ],
            [
              -112.36719511993309,
              47.31613123781052
            ],
            [
              -112.36517059273802,
              47.31062807323235
            ],
            [
              -112.36287965312967,
              47.3052303768303
            ],
            [
              -112.36032777128801,
              47.299951036927986
            ],
            [
              -112.35752104045667,
              47.29480265924387
            ],
            [
              -112.35446616239369,
              47.289797536792
            ],
            [
              -112.35117043136947,
              47.284947620529444
            ],
            [
              -112.3476417167499,
              47.280264490820414
            ],
            [
              -112.34388844420636,
              47.275759329785366
            ],
            [
              -112.33991957559729,
              47.27144289460088
            ],
            [
              -112.33574458756964,
              47.26732549181431
            ],
            [
              -112.33137344893098,
              47.26341695273436
            ],
            [
              -112.32681659684657,
              47.25972660995641
            ],
            [
              -112.32208491191807,
              47.25626327507869
            ],
            [
              -112.3171896922034,
              47.25303521766238
            ],
            [
              -112.31214262623988,
              47.250050145486064
            ],
            [
              -112.306955765135,
              47.24731518614146
            ],
            [
              -112.30164149379142,
              47.2448368700146
            ],
            [
              -112.29621250133496,
              47.242621114692895
            ],
            [
              -112.29068175081628,
              47.240673210835446
            ],
            [
              -112.28506244825829,
              47.23899780954033
            ],
            [
              -112.27936801112367,
              47.237598911238926
            ],
            [
              -112.27361203627727,
              47.23647985614393
            ],
            [
              -112.26780826752038,
              47.23564331627375
            ],
            [
              -112.26197056277391,
              47.23509128907246
            ],
            [
              -112.2561128609893,
              47.23482509264033
            ],
            [
              -112.2502491488658,
              47.23484536258662
            ],
            [
              -112.24439342745386,
              47.235152050511864
            ],
            [
              -112.08900501760424,
              47.24710329730672
            ],
            [
              -112.08758595920257,
              47.24717799739724
            ],
            [
              -112.08727463549535,
              47.245792472111205
            ],
            [
              -112.07785019109964,
              47.198676982840674
            ],
            [
              -112.0776017311518,
              47.19725355709055
            ],
            [
              -112.07897511977848,
              47.196804472586884
            ],
            [
              -112.17615213613921,
              47.1676555330031
            ],
            [
              -112.17754621155804,
              47.16727396871013
            ],
            [
              -112.17891872296738,
              47.167721708961814
            ],
            [
              -112.34614495063516,
              47.22673429771219
            ],
            [
              -112.34749258978661,
              47.22724707363067
            ],
            [
              -112.34777720061649,
              47.22877199865572
            ],
            [
              -112.34818911420926,
              47.231315467211175
            ],
            [
              -112.3493881595069,
              47.23697513455273
            ],
            [
              -112.35085858872314,
              47.24257043454137
            ],
            [
              -112.35259698417774,
              47.24808836216742
            ],
            [
              -112.35459930536351,
              47.25351609225576
            ],
            [
              -112.35686089833762,
              47.25884100927505
            ],
            [
              -112.35937650653855,
              47.26405073665969
            ],
            [
              -112.36214028300385,
              47.269133165576335
            ],
            [
              -112.36514580396003,
              47.27407648306814
            ],
            [
              -112.36838608375321,
              47.27886919951133
            ],
            [
              -112.37185359108565,
              47.2835001753202
            ],
            [
              -112.37554026652059,
              47.28795864683858
            ],
            [
              -112.37943754121459,
              47.29223425135753
            ],
            [
              -112.3835363568338,
              47.29631705120109
            ],
            [
              -112.38782718660809,
              47.30019755682418
            ],
            [
              -112.39230005747388,
              47.30386674886889
            ],
            [
              -112.39694457325415,
              47.307316099127945
            ],
            [
              -112.40174993882215,
              47.3105375903666
            ],
            [
              -112.40670498519215,
              47.313523734956874
            ],
            [
              -112.41179819547924,
              47.31626759228086
            ],
            [
              -112.41701773166771,
              47.318762784862614
            ],
            [
              -112.42235146212589,
              47.32100351319116
            ],
            [
              -112.42778698980332,
              47.322984569200145
            ],
            [
              -112.43331168104493,
              47.32470134837282
            ],
            [
              -112.4389126949551,
              47.32614986044416
            ],
            [
              -112.44457701324346,
              47.327326738675396
            ],
            [
              -112.45029147048287,
              47.32822924767916
            ],
            [
              -112.5160278880596,
              47.33699285105489
            ],
            [
              -112.51743788345041,
              47.33721641022493
            ]
          ]
        ]
      },
      "properties": {
        "hail_size_bin": "0.5\"",
        "min_size_inches": 0.5
      }
    },
    {
      "type": "Feature",
      "geometry": {
        "type": "Polygon",
        "coordinates": [
          [
            [
              -113.83717398946351,
              53.07558090884585
            ],
            [
              -113.83600241600932,
              53.076201841509345
            ],
            [
              -113.73863462797816,
              53.124878779689034
            ],
            [
              -113.73732134506703,
              53.125495696773086
            ],
            [
              -113.73595497165343,
              53.125008125852716
            ],
            [
              -113.71546015067128,
              53.11712662864803
            ],
            [
              -113.70979949379924,
              53.11511094645919
            ],
            [
              -113.70404503283179,
              53.11338115170741
            ],
            [
              -113.69821119628492,
              53.11194158161408
            ],
            [
              -113.69231261169791,
              53.11079584570237
            ],
            [
              -113.68636406895689,
              53.10994681674681
            ],
            [
              -113.68038048321105,
              53.10939662357024
            ],
            [
              -113.67437685747517,
              53.10914664570603
            ],
            [
              -113.66836824501145,
              53.10919750993917
            ],
            [
              -113.6623697115857,
              53.1095490887346
            ],
            [
              -113.65639629769188,
              53.11020050055707
            ],
            [
              -113.65046298084023,
              53.111150112081404
            ],
            [
              -113.64458463800317,
              53.112395542287885
            ],
            [
              -113.63877600831337,
              53.113933668432296
            ],
            [
              -113.63305165610744,
              53.115760633875794
            ],
            [
              -113.62742593440782,
              53.1178718577549
            ],
            [
              -113.62191294893458,
              53.120262046467346
            ],
            [
              -113.61652652273729,
              53.12292520694511
            ],
            [
              -113.61128016153557,
              53.12585466168115
            ],
            [
              -113.6061870198555,
              53.12904306547238
            ],
            [
              -113.60125986804628,
              53.1324824238367
            ],
            [
              -113.59819751605895,
              53.1348566257022
            ],
            [
              -113.59733565274884,
              53.13549223803081
            ],
            [
              -113.59594626040551,
              53.135065859814446
            ],
            [
              -113.44766830288575,
              53.08564693583868
            ],
            [
              -113.4422604219791,
              53.08398513970267
            ],
            [
              -113.436780226792,
              53.08258007635553
            ],
            [
              -113.43123989810188,
              53.08143486881813
            ],
            [
              -113.42565175034436,
              53.0805520625323
            ],
            [
              -113.42002820424202,
              53.07993361970314
            ],
            [
              -113.41438175919698,
              53.079580914937615
            ],
            [
              -113.40872496550867,
              53.079494732189225
            ],
            [
              -113.40307039647833,
              53.079675263015545
            ],
            [
              -113.29885946904594,
              53.08546393179497
            ],
            [
              -113.29739520573719,
              53.08550919098653
            ],
            [
              -113.29624093228696,
              53.084615378755444
            ],
            [
              -113.13855095519969,
              52.9565105782886
            ],
            [
              -113.13751505692908,
              52.95562600339224
            ],
            [
              -113.13887423638221,
              52.9557160948738
            ],
            [
              -113.24579138336657,
              52.96543444677594
            ],
            [
              -113.24738713495375,
              52.96562274193725
            ],
            [
              -113.24889950061089,
              52.96614478913729
            ],
            [
              -113.48597446697163,
              53.05503519926297
            ],
            [
              -113.48734458106033,
              53.05558779736625
            ],
            [
              -113.48899648022768,
              53.05692284421821
            ],
            [
              -113.49373057884429,
              53.06055344266898
            ],
            [
              -113.49863927166524,
              53.063944264046185
            ],
            [
              -113.50371042571943,
              53.067086927149525
            ],
            [
              -113.50893150647524,
              53.069973664159335
            ],
            [
              -113.51428960882245,
              53.072597339836584
            ],
            [
              -113.51977148897024,
              53.07495146915923
            ],
            [
              -113.52536359718232,
              53.077030233351465
            ],
            [
              -113.53105211126818,
              53.07882849426618
            ],
            [
              -113.5368229707479,
              53.080341807085084
            ],
            [
              -113.54266191160583,
              53.08156643130507
            ],
            [
              -113.54855450154741,
              53.08249933998378
            ],
            [
              -113.55448617567198,
              53.08313822722137
            ],
            [
              -113.56044227247327,
              53.083481513860065
            ],
            [
              -113.56640807007867,
              53.08352835138745
            ],
            [
              -113.5723688226378,
              53.083278624033724
            ],
            [
              -113.57830979677033,
              53.08273294905788
            ],
            [
              -113.5842163079828,
              53.08189267522198
            ],
            [
              -113.59007375696494,
              53.08075987945741
            ],
            [
              -113.59586766567506,
              53.07933736173124
            ],
            [
              -113.60158371312602,
              53.07762863812547
            ],
            [
              -113.60720777078278,
              53.07563793214619
            ],
            [
              -113.6073537757135,
              53.07558213016643
            ],
            [
              -113.60880221456533,
              53.07554862628571
            ],
            [
              -113.83584823251921,
              53.07554862628571
            ],
            [
              -113.83717398946351,
              53.07558090884585
            ]
          ]
        ]
      },
      "properties": {
        "hail_size_bin": "0.5\"",
        "min_size_inches": 0.5
      }
    },
    {
      "type": "Feature",
      "geometry": {
        "type": "Polygon",
        "coordinates": [
          [
            [
              -113.66729443881961,
              36.82017490190635
            ],
            [
              -113.6660114183465,
              36.82078223469716
            ],
            [
              -113.5787123309224,
              36.859576285516575
            ],
            [
              -113.57735707087464,
              36.86013853791417
            ],
            [
              -113.57644912304715,
              36.85898746581309
            ],
            [
              -113.54820018240945,
              36.821327593149014
            ],
            [
              -113.54738224104847,
              36.82018179789539
            ],
            [
              -113.54717480492748,
              36.81878968535144
            ],
            [
              -113.53753241423745,
              36.7416615812811
            ],
            [
              -113.53739171950627,
              36.740261035176744
            ],
            [
              -113.5387636201622,
              36.74057054447187
            ],
            [
              -113.6559067521821,
              36.76985214319568
            ],
            [
              -113.6573042945076,
              36.77023813625546
            ],
            [
              -113.6576234627795,
              36.771652437074984
            ],
            [
              -113.6670495929138,
              36.81877635383424
            ],
            [
              -113.66729443881961,
              36.82017490190635
            ]
          ]
        ]
      },
      "properties": {
        "hail_size_bin": "0.5\"",
        "min_size_inches": 0.5
      }
    },
    {
      "type": "Feature",
      "geometry": {
        "type": "Polygon",
        "coordinates": [
          [
            [
              -114.8471212307176,
              41.7787574194052
            ],
            [
              -114.84580593420452,
              41.779320956662275
            ],
            [
              -114.74855457424866,
              41.818215942629884
            ],
            [
              -114.74718195486983,
              41.81872597697034
            ],
            [
              -114.74600156239295,
              41.81802884276343
            ],
            [
              -114.74087912290621,
              41.81517263557145
            ],
            [
              -114.73562324783596,
              41.812570120813604
            ],
            [
              -114.7302464919004,
              41.810227515121554
            ],
            [
              -114.7247616985661,
              41.808150414281734
            ],
            [
              -114.7191819693687,
              41.80634377986863
            ],
            [
              -114.71352063261736,
              41.804811927393104
            ],
            [
              -114.70779121155732,
              41.80355851599392
            ],
            [
              -114.70200739206693,
              41.80258653969713
            ],
            [
              -114.69618298996619,
              41.80189832026426
            ],
            [
              -114.69501837361688,
              41.80181814193929
            ],
            [
              -114.69594652681789,
              41.79995273904619
            ],
            [
              -114.69832971605642,
              41.794500950303636
            ],
            [
              -114.70043974451858,
              41.788937734387545
            ],
            [
              -114.70227142481785,
              41.78327676815187
            ],
            [
              -114.70382025387107,
              41.777531968764244
            ],
            [
              -114.70508242396899,
              41.77171745949139
            ],
            [
              -114.70605483213728,
              41.76584753497787
            ],
            [
              -114.70673508776507,
              41.75993662610351
            ],
            [
              -114.7071215184821,
              41.75399926450587
            ],
            [
              -114.70718999347912,
              41.74955467164717
            ],
            [
              -114.70721904765065,
              41.74881321903397
            ],
            [
              -114.70859793814978,
              41.748432839441755
            ],
            [
              -114.82571814682383,
              41.7191569707356
            ],
            [
              -114.82714372488915,
              41.718838115068344
            ],
            [
              -114.82764008927676,
              41.72021200158147
            ],
            [
              -114.84670188289607,
              41.77738921193182
            ],
            [
              -114.8471212307176,
              41.7787574194052
            ]
          ]
        ]
      },
      "properties": {
        "hail_size_bin": "0.5\"",
        "min_size_inches": 0.5
      }
    },
    {
      "type": "Feature",
      "geometry": {
        "type": "Polygon",
        "coordinates": [
          [
            [
              -114.57707030033109,
              41.86883595839426
            ],
            [
              -114.57614207153401,
              41.86976464760758
            ],
            [
              -114.35830546301759,
              42.077669882863425
            ],
            [
              -114.35731992382337,
              42.078565094512975
            ],
            [
              -114.35778450536722,
              42.07731756210028
            ],
            [
              -114.41668109279901,
              41.93009713102231
            ],
            [
              -114.41725335512692,
              41.9287622955924
            ],
            [
              -114.41860020554536,
              41.92821946546919
            ],
            [
              -114.57582968986308,
              41.869266833061836
            ],
            [
              -114.57707030033109,
              41.86883595839426
            ]
          ]
        ]
      },
      "properties": {
        "hail_size_bin": "0.5\"",
        "min_size_inches": 0.5
      }
    },
    {
      "type": "Feature",
      "geometry": {
        "type": "Polygon",
        "coordinates": [
          [
            [
              -115.1070147686712,
              54.85510560507499
            ],
            [
              -115.10607779374891,
              54.856089628547586
            ],
            [
              -115.00814374734654,
              54.95400968237255
            ],
            [
              -115.00712487860254,
              54.95498139839504
            ],
            [
              -115.00575879949506,
              54.95531873188189
            ],
            [
              -114.82860255268632,
              54.99468116191674
            ],
            [
              -114.82716149521437,
              54.99496449805532
            ],
            [
              -114.82570895329171,
              54.994817698176305
            ],
            [
              -114.66865290524372,
              54.975188497143385
            ],
            [
              -114.66735329487554,
              54.97499354188193
            ],
            [
              -114.66861236463346,
              54.974617972092034
            ],
            [
              -115.10569536287126,
              54.85543054966848
            ],
            [
              -115.1070147686712,
              54.85510560507499
            ]
          ]
        ]
      },
      "properties": {
        "hail_size_bin": "0.5\"",
        "min_size_inches": 0.5
      }
    },
    {
      "type": "Feature",
      "geometry": {
        "type": "Polygon",
        "coordinates": [
          [
            [
              -115.35703404248616,
              53.21554578461367
            ],
            [
              -115.35638623755992,
              53.21680205450179
            ],
            [
              -115.29781862921726,
              53.324160661802416
            ],
            [
              -115.29708175994892,
              53.325434597505215
            ],
            [
              -115.29565841583847,
              53.325065248248144
            ],
            [
              -115.22852320644856,
              53.305886500455244
            ],
            [
              -115.22714273991416,
              53.30545531043726
            ],
            [
              -115.22681434878764,
              53.30315183611727
            ],
            [
              -115.22668608772803,
              53.30206034191687
            ],
            [
              -115.22572451107526,
              53.296306576598006
            ],
            [
              -115.22448444538558,
              53.29060634133189
            ],
            [
              -115.22296882121368,
              53.284973107058995
            ],
            [
              -115.22118122032101,
              53.27942018638134
            ],
            [
              -115.21912586721133,
              53.273960702101824
            ],
            [
              -115.21680761914718,
              53.26860755621208
            ],
            [
              -115.21423195467116,
              53.26337339940217
            ],
            [
              -115.21140496065884,
              53.25827060116413
            ],
            [
              -115.20833331793415,
              53.25331122056011
            ],
            [
              -115.205024285481,
              53.24850697772405
            ],
            [
              -115.20148568328878,
              53.2438692261644
            ],
            [
              -115.19772587387189,
              53.239408925933205
            ],
            [
              -115.19375374250723,
              53.235136617725026
            ],
            [
              -115.18957867623634,
              53.23106239796691
            ],
            [
              -115.18521054168164,
              53.227195894958264
            ],
            [
              -115.18065966172945,
              53.223546246117
            ],
            [
              -115.1759367911346,
              53.22012207638578
            ],
            [
              -115.17105309110464,
              53.21693147784929
            ],
            [
              -115.16602010292323,
              53.21398199061088
            ],
            [
              -115.16084972067561,
              53.21128058497355
            ],
            [
              -115.1555541631402,
              53.20883364496758
            ],
            [
              -115.15014594491277,
              53.20664695326359
            ],
            [
              -115.14463784683171,
              53.20472567750688
            ],
            [
              -115.13904288577406,
              53.203074358105
            ],
            [
              -115.13337428389357,
              53.20169689749781
            ],
            [
              -115.12764543737391,
              53.20059655093514
            ],
            [
              -115.12186988477039,
              53.19977591878388
            ],
            [
              -115.1160612750153,
              53.199236940382725
            ],
            [
              -115.11023333516246,
              53.1989808894591
            ],
            [
              -115.10439983794706,
              53.199008371119035
            ],
            [
              -115.09857456923757,
              53.199319320417175
            ],
            [
              -115.09277129545666,
              53.19991300251025
            ],
            [
              -115.08700373104804,
              53.2007880143937
            ],
            [
              -115.08128550606611,
              53.20194228821727
            ],
            [
              -115.07563013396508,
              53.20337309617178
            ],
            [
              -114.81859382487525,
              53.27509391041448
            ],
            [
              -114.8171696712346,
              53.275453699821995
            ],
            [
              -114.81581722049859,
              53.27489077037891
            ],
            [
              -114.72854106148964,
              53.23610690851026
            ],
            [
              -114.72727914946829,
              53.23550825644236
            ],
            [
              -114.72860531953442,
              53.235071619156585
            ],
            [
              -115.05570246888291,
              53.13596543294247
            ],
            [
              -115.05714374305127,
              53.13556770613073
            ],
            [
              -115.058623033315,
              53.13568812467175
            ],
            [
              -115.24563457753676,
              53.15537073777375
            ],
            [
              -115.24708626319385,
              53.15555985724732
            ],
            [
              -115.24826317657032,
              53.15746897678327
            ],
            [
              -115.24895830953633,
              53.15866111729745
            ],
            [
              -115.25218540025895,
              53.16361707185826
            ],
            [
              -115.25565274441095,
              53.16840801379826
            ],
            [
              -115.25935192029495,
              53.17302230658483
            ],
            [
              -115.26327394312644,
              53.177448742741625
            ],
            [
              -115.26740928685665,
              53.18167657106995
            ],
            [
              -115.27174790730999,
              53.18569552276196
            ],
            [
              -115.27627926657992,
              53.18949583634215
            ],
            [
              -115.28099235862408,
              53.1930682813766
            ],
            [
              -115.28587573599643,
              53.19640418089247
            ],
            [
              -115.29091753765155,
              53.199495432453126
            ],
            [
              -115.29610551775343,
              53.202334527837834
            ],
            [
              -115.30142707541889,
              53.20491457127819
            ],
            [
              -115.3068692853234,
              53.207229296207
            ],
            [
              -115.31241892909493,
              53.20927308047887
            ],
            [
              -115.31806252741949,
              53.211040960025656
            ],
            [
              -115.32378637278052,
              53.212528640913455
            ],
            [
              -115.32957656275256,
              53.21373250977199
            ],
            [
              -115.3354190337683,
              53.214649642571
            ],
            [
              -115.34129959527706,
              53.21527781172229
            ],
            [
              -115.3472039642116,
              53.215615491490226
            ],
            [
              -115.3531177996798,
              53.215661861697555
            ],
            [
              -115.3551418994302,
              53.21557791943214
            ],
            [
              -115.35703404248616,
              53.21554578461367
            ]
          ]
        ]
      },
      "properties": {
        "hail_size_bin": "0.5\"",
        "min_size_inches": 0.5
      }
    },
    {
      "type": "Feature",
      "geometry": {
        "type": "Polygon",
        "coordinates": [
          [
            [
              -116.4268992942464,
              53.40548692551213
            ],
            [
              -116.42674348703743,
              53.40692016246931
            ],
            [
              -116.40713348456293,
              53.55397416730846
            ],
            [
              -116.40691031120865,
              53.555386367451284
            ],
            [
              -116.40554756732713,
              53.55580976980658
            ],
            [
              -116.268390490395,
              53.59499190702485
            ],
            [
              -116.26697088401083,
              53.595359688574305
            ],
            [
              -116.26532004361275,
              53.59370302683024
            ],
            [
              -116.26453883982337,
              53.59288002570187
            ],
            [
              -116.26026879835236,
              53.58880327321343
            ],
            [
              -116.2558034205193,
              53.584941464592546
            ],
            [
              -116.25115351414023,
              53.58130394680124
            ],
            [
              -116.2463303336564,
              53.57789952393728
            ],
            [
              -116.24134555289457,
              53.574736435925104
            ],
            [
              -116.23621123681215,
              53.57182233857224
            ],
            [
              -116.23093981229565,
              53.569164285039506
            ],
            [
              -116.22554403808311,
              53.56676870876986
            ],
            [
              -116.22003697388355,
              53.564641407917115
            ],
            [
              -116.2144319487676,
              53.56278753131236
            ],
            [
              -116.20874252890643,
              53.56121156600194
            ],
            [
              -116.20298248473684,
              53.55991732638716
            ],
            [
              -116.19716575763171,
              53.558907944992114
            ],
            [
              -116.191306426157,
              53.55818586488183
            ],
            [
              -116.1854186719965,
              53.55775283374916
            ],
            [
              -116.17951674562714,
              53.557609899684785
            ],
            [
              -116.17361493182761,
              53.55775740864039
            ],
            [
              -116.1677275151042,
              53.5581950035914
            ],
            [
              -116.16186874511709,
              53.55892162540108
            ],
            [
              -116.15605280219107,
              53.55993551538402
            ],
            [
              -116.15029376299411,
              53.5612342195628
            ],
            [
              -116.14460556646671,
              53.56281459460748
            ],
            [
              -116.13900198008471,
              53.56467281544361
            ],
            [
              -116.13349656653709,
              53.56680438451025
            ],
            [
              -116.12810265089931,
              53.56920414264571
            ],
            [
              -116.12283328838191,
              53.57186628157454
            ],
            [
              -116.1177012327322,
              53.57478435796569
            ],
            [
              -116.11271890536565,
              53.57795130902762
            ],
            [
              -116.10789836530154,
              53.58135946960284
            ],
            [
              -116.10325127997585,
              53.5850005907203
            ],
            [
              -116.09878889700192,
              53.58886585956091
            ],
            [
              -116.09452201694711,
              53.59294592078766
            ],
            [
              -116.0904609671916,
              53.59723089918895
            ],
            [
              -116.08661557693243,
              53.6017104235801
            ],
            [
              -116.0829951533933,
              53.60637365190536
            ],
            [
              -116.07960845929775,
              53.61120929747956
            ],
            [
              -116.07749575572221,
              53.61456592867586
            ],
            [
              -116.07614438201044,
              53.61660070579982
            ],
            [
              -116.00779920707332,
              53.71422272000757
            ],
            [
              -116.00697328018302,
              53.715345922833805
            ],
            [
              -116.0058379498997,
              53.716139654429995
            ],
            [
              -115.88825860961276,
              53.79451468165528
            ],
            [
              -115.88701252333371,
              53.79530122098388
            ],
            [
              -115.88571076071882,
              53.79461779687102
            ],
            [
              -115.7983141827381,
              53.74607107966487
            ],
            [
              -115.79707902578998,
              53.7453448235698
            ],
            [
              -115.7978619532479,
              53.74414575007477
            ],
            [
              -115.90616292098166,
              53.58663957704792
            ],
            [
              -115.90671172682569,
              53.58588269613573
            ],
            [
              -115.91004600002205,
              53.58103880601519
            ],
            [
              -115.91313896889957,
              53.57603738693952
            ],
            [
              -115.91598320589769,
              53.5708904494864
            ],
            [
              -115.91857188076906,
              53.5656103536863
            ],
            [
              -115.92089877698189,
              53.56020977934069
            ],
            [
              -115.92295830664855,
              53.55470169557226
            ],
            [
              -115.92474552394454,
              53.54909932968054
            ],
            [
              -115.9262561369855,
              53.543416135377306
            ],
            [
              -115.92748651813397,
              53.53766576047846
            ],
            [
              -115.92843371271086,
              53.53186201412965
            ],
            [
              -115.9290954460909,
              53.52601883364454
            ],
            [
              -115.9294701291651,
              53.52015025103528
            ],
            [
              -115.92955686215679,
              53.51427035931553
            ],
            [
              -115.9293554367824,
              53.508393278657046
            ],
            [
              -115.9288663367517,
              53.50253312248099
            ],
            [
              -115.92809073660608,
              53.49670396356551
            ],
            [
              -115.92703049889812,
              53.490919800250865
            ],
            [
              -115.92568816971864,
              53.48519452282337
            ],
            [
              -115.92406697258257,
              53.47954188015876
            ],
            [
              -115.92217080068777,
              53.473975446705175
            ],
            [
              -115.92000420756587,
              53.46850858988503
            ],
            [
              -115.91757239614718,
              53.46315443799405
            ],
            [
              -115.91488120626629,
              53.45792584867447
            ],
            [
              -115.91193710063799,
              53.45283537803835
            ],
            [
              -115.90874714933757,
              53.44789525051481
            ],
            [
              -115.90704125388024,
              53.44539030115056
            ],
            [
              -115.90667384626268,
              53.44301544651635
            ],
            [
              -115.90564246279571,
              53.43727562839881
            ],
            [
              -115.90433343660614,
              53.43159269655746
            ],
            [
              -115.90274985929238,
              53.425980072681796
            ],
            [
              -115.90089547087518,
              53.420451012411135
            ],
            [
              -115.89877465096463,
              53.41501857402812
            ],
            [
              -115.89639240841652,
              53.40969558761818
            ],
            [
              -115.89375436950277,
              53.40449462476809
            ],
            [
              -115.89086676462351,
              53.39942796887494
            ],
            [
              -115.88773641359235,
              53.39450758613575
            ],
            [
              -115.88437070952973,
              53.389745097286294
            ],
            [
              -115.88077760140216,
              53.38515175015572
            ],
            [
              -115.87696557524869,
              53.38073839310201
            ],
            [
              -115.87294363413899,
              53.376515449390745
            ],
            [
              -115.86872127691032,
              53.372492892577974
            ],
            [
              -115.86430847573361,
              53.368680222955106
            ],
            [
              -115.8597156525616,
              53.365086445111515
            ],
            [
              -115.8549536545148,
              53.36172004666798
            ],
            [
              -115.85003372826321,
              53.35858897823096
            ],
            [
              -115.8449674934645,
              53.35570063461521
            ],
            [
              -115.83976691532115,
              53.353061837379094
            ],
            [
              -115.83444427632169,
              53.35067881871368
            ],
            [
              -115.82901214723236,
              53.34855720672388
            ],
            [
              -115.82348335740815,
              53.34670201213621
            ],
            [
              -115.81787096449295,
              53.345117616464734
            ],
            [
              -115.81218822358063,
              53.34380776166294
            ],
            [
              -115.80644855590974,
              53.34277554128622
            ],
            [
              -115.80066551716587,
              53.34202339318564
            ],
            [
              -115.79485276546642,
              53.341553093750306
            ],
            [
              -115.78902402910349,
              53.341365753712
            ],
            [
              -115.78319307412107,
              53.341461815521875
            ],
            [
              -115.77737367180293,
              53.34184105230553
            ],
            [
              -115.77157956614833,
              53.34250256839882
            ],
            [
              -115.765824441412,
              53.34344480146317
            ],
            [
              -115.7601218897853,
              53.34466552617546
            ],
            [
              -115.75690384601383,
              53.345436631541084
            ],
            [
              -115.755516401161,
              53.345471475714284
            ],
            [
              -115.68850357404479,
              53.345471475714284
            ],
            [
              -115.68709670740563,
              53.34543726317663
            ],
            [
              -115.68764343831577,
              53.34414112416473
            ],
            [
              -115.77642043759823,
              53.14688709073896
            ],
            [
              -115.777056919929,
              53.145561815184465
            ],
            [
              -115.77851925249684,
              53.145446001778986
            ],
            [
              -115.95554663730783,
              53.13561255224729
            ],
            [
              -115.95692505660453,
              53.13556962865292
            ],
            [
              -115.95599795160548,
              53.13658990248234
            ],
            [
              -115.92244632634866,
              53.171814075539004
            ],
            [
              -115.91852289977959,
              53.17613908404221
            ],
            [
              -115.91481451951265,
              53.180649836794416
            ],
            [
              -115.91132996693425,
              53.18533565240369
            ],
            [
              -115.90807749341036,
              53.190185434932026
            ],
            [
              -115.90506480074738,
              53.195187700170315
            ],
            [
              -115.90229902295437,
              53.200330602832764
            ],
            [
              -115.89978670934985,
              53.20560196460637
            ],
            [
              -115.89753380905312,
              53.210989302988985
            ],
            [
              -115.8955456568968,
              53.21647986084763
            ],
            [
              -115.8938269607941,
              53.22206063662724
            ],
            [
              -115.89238179059046,
              53.22771841513813
            ],
            [
              -115.89121356842632,
              53.23343979884934
            ],
            [
              -115.89032506063349,
              53.239211239613816
            ],
            [
              -115.88971837118447,
              53.24501907075015
            ],
            [
              -115.88939493671043,
              53.25084953940514
            ],
            [
              -115.88935552309911,
              53.25668883912026
            ],
            [
              -115.88960022368134,
              53.26252314252519
            ],
            [
              -115.89012845900997,
              53.2683386340808
            ],
            [
              -115.890938978232,
              53.274121542794106
            ],
            [
              -115.8920298620506,
              53.2798581748278
            ],
            [
              -115.89339852726998,
              53.28553494592703
            ],
            [
              -115.89504173291232,
              53.29113841358668
            ],
            [
              -115.89695558789236,
              53.296655308883054
            ],
            [
              -115.89913556023149,
              53.302072567894434
            ],
            [
              -115.90157648778931,
              53.30737736263629
            ],
            [
              -115.9042725904876,
              53.3125571314377
            ],
            [
              -115.90721748399733,
              53.31759960868723
            ],
            [
              -115.91040419485681,
              53.32249285387768
            ],
            [
              -115.91382517698459,
              53.32722527988103
            ],
            [
              -115.91747232954853,
              53.33178568038658
            ],
            [
              -115.92133701614847,
              53.336163256437324
            ],
            [
              -115.92541008526702,
              53.340347642001696
            ],
            [
              -115.92968189194025,
              53.34432892852017
            ],
            [
              -115.93414232059686,
              53.3480976883686
            ],
            [
              -115.93878080901158,
              53.351644997182646
            ],
            [
              -115.94358637331646,
              53.35496245499057
            ],
            [
              -115.94854763401045,
              53.358042206104216
            ],
            [
              -115.9536528429059,
              53.360876957721146
            ],
            [
              -115.95888991094803,
              53.36345999719391
            ],
            [
              -115.9642464368417,
              53.365785207925455
            ],
            [
              -115.96970973641746,
              53.367847083853185
            ],
            [
              -115.9752668726674,
              53.369640742487164
            ],
            [
              -115.9809046863799,
              53.371161936471836
            ],
            [
              -115.98660982730031,
              53.37240706364364
            ],
            [
              -115.99236878574425,
              53.373373175560936
            ],
            [
              -116.0055367392701,
              53.37525404300677
            ],
            [
              -116.00698358726994,
              53.37549718487826
            ],
            [
              -116.00802119698376,
              53.37647863594169
            ],
            [
              -116.01003790037112,
              53.37848313828771
            ],
            [
              -116.01434306519882,
              53.38236733651956
            ],
            [
              -116.01883083379671,
              53.38603903546005
            ],
            [
              -116.02349072802294,
              53.38948966234489
            ],
            [
              -116.02831186785284,
              53.39271116057373
            ],
            [
              -116.03328299678199,
              53.39569600852089
            ],
            [
              -116.03839250810806,
              53.398437237097035
            ],
            [
              -116.04362847203042,
              53.40092844602074
            ],
            [
              -116.04897866350413,
              53.403163818762046
            ],
            [
              -116.0544305907832,
              53.40513813612298
            ],
            [
              -116.05997152458663,
              53.406846788423486
            ],
            [
              -116.06558852781899,
              53.40828578626418
            ],
            [
              -116.07126848577629,
              53.40945176984093
            ],
            [
              -116.07699813676642,
              53.41034201678935
            ],
            [
              -116.08276410307289,
              53.41095444854108
            ],
            [
              -116.0885529221894,
              53.411287635176855
            ],
            [
              -116.09435107825239,
              53.41134079876511
            ],
            [
              -116.1001450335982,
              53.41111381517831
            ],
            [
              -116.10592126037109,
              53.41060721438279
            ],
            [
              -116.11166627210841,
              53.40982217920135
            ],
            [
              -116.11736665522902,
              53.408760542551576
            ],
            [
              -116.12300910035171,
              53.40742478316631
            ],
            [
              -116.12858043337017,
              53.405818019806276
            ],
            [
              -116.13406764621226,
              53.40394400397826
            ],
            [
              -116.13945792721142,
              53.4018071111761
            ],
            [
              -116.14473869101978,
              53.39941233066459
            ],
            [
              -116.1498976079926,
              53.396765253830516
            ],
            [
              -116.15492263297585,
              53.3938720611277
            ],
            [
              -116.1598020334295,
              53.39073950764679
            ],
            [
              -116.16452441682092,
              53.387374907343286
            ],
            [
              -116.16702873298492,
              53.38549779085486
            ],
            [
              -116.16844589247447,
              53.38557309008053
            ],
            [
              -116.42546450652218,
              53.40534092791559
            ],
            [
              -116.4268992942464,
              53.40548692551213
            ]
          ]
        ]
      },
      "properties": {
        "hail_size_bin": "0.5\"",
        "min_size_inches": 0.5
      }
    },
    {
      "type": "Feature",
      "geometry": {
        "type": "Polygon",
        "coordinates": [
          [
            [
              -116.90677669118944,
              45.87763135249746
            ],
            [
              -116.90565613535911,
              45.87846296202428
            ],
            [
              -116.56811429530117,
              46.11669374760364
            ],
            [
              -116.56691355663183,
              46.117498078204996
            ],
            [
              -116.56631141388426,
              46.117253687546366
            ],
            [
              -116.56206725583458,
              46.115414188586264
            ],
            [
              -116.55647139555857,
              46.11331322810558
            ],
            [
              -116.55077785969277,
              46.111493520295305
            ],
            [
              -116.54500077440858,
              46.10995958001317
            ],
            [
              -116.539154473171,
              46.10871521310213
            ],
            [
              -116.53325346117595,
              46.10776350694772
            ],
            [
              -116.52731237936169,
              46.107106822817975
            ],
            [
              -116.52134596808325,
              46.106746790004934
            ],
            [
              -116.51536903054034,
              46.10668430178217
            ],
            [
              -116.50939639604924,
              46.106919513188565
            ],
            [
              -116.50344288325,
              46.107451840643584
            ],
            [
              -116.49752326334007,
              46.10827996339523
            ],
            [
              -116.49165222342555,
              46.10940182679694
            ],
            [
              -116.48584433008128,
              46.11081464740533
            ],
            [
              -116.48011399320978,
              46.11251491988618
            ],
            [
              -116.47447543028906,
              46.11449842571149
            ],
            [
              -116.46894263109773,
              46.116760243626
            ],
            [
              -116.46352932300515,
              46.11929476185729
            ],
            [
              -116.45824893691258,
              46.12209569203908
            ],
            [
              -116.4531145739299,
              46.12515608481322
            ],
            [
              -116.44813897287061,
              46.128468347071674
            ],
            [
              -116.44333447864571,
              46.13202426079572
            ],
            [
              -116.43871301163482,
              46.135815003445536
            ],
            [
              -116.43428603811068,
              46.139831169849785
            ],
            [
              -116.43006454179034,
              46.14406279554062
            ],
            [
              -116.4278613192887,
              46.14650310902094
            ],
            [
              -116.4269191728379,
              46.14749827096662
            ],
            [
              -116.42554829756823,
              46.14796334393581
            ],
            [
              -116.10840209346804,
              46.24705737238113
            ],
            [
              -116.10706057158305,
              46.24744036830801
            ],
            [
              -116.10776304248107,
              46.24623559586337
            ],
            [
              -116.18621814145196,
              46.11876427542922
            ],
            [
              -116.1869936330849,
              46.11756952023129
            ],
            [
              -116.18840568854698,
              46.117383943124686
            ],
            [
              -116.41485457905645,
              46.093125028548435
            ],
            [
              -116.42054447978254,
              46.092377474063056
            ],
            [
              -116.4261921335921,
              46.0913587422884
            ],
            [
              -116.43178462390554,
              46.09007116313534
            ],
            [
              -116.43730916030606,
              46.088517681387536
            ],
            [
              -116.44275310779219,
              46.086701849966474
            ],
            [
              -116.44810401567494,
              46.08462782180573
            ],
            [
              -116.45334964605345,
              46.08230034035289
            ],
            [
              -116.45847800180387,
              46.07972472872094
            ],
            [
              -116.46347735401758,
              46.07690687751399
            ],
            [
              -116.46833626882616,
              46.07385323135499
            ],
            [
              -116.4730436335513,
              46.070570774146454
            ],
            [
              -116.47633734310116,
              46.06803166569667
            ],
            [
              -116.47695273941015,
              46.067581849266446
            ],
            [
              -116.47834527878727,
              46.067099439881375
            ],
            [
              -116.68691192250547,
              46.00036764972923
            ],
            [
              -116.69236229459294,
              45.998478203427204
            ],
            [
              -116.6977155667801,
              45.99632900820334
            ],
            [
              -116.70295936833776,
              45.993925030573656
            ],
            [
              -116.70808158150939,
              45.99127182582382
            ],
            [
              -116.7130703695137,
              45.988375525171584
            ],
            [
              -116.71791420389796,
              45.98524282159832
            ],
            [
              -116.72260189117875,
              45.98188095438238
            ],
            [
              -116.72712259870873,
              45.97829769237011
            ],
            [
              -116.73146587970939,
              45.97450131602294
            ],
            [
              -116.73562169741237,
              45.970500598282364
            ],
            [
              -116.73958044825304,
              45.96630478429678
            ],
            [
              -116.74333298406316,
              45.96192357005711
            ],
            [
              -116.74687063321113,
              45.957367079990625
            ],
            [
              -116.750185220641,
              45.95264584356466
            ],
            [
              -116.80606581620177,
              45.86883692634807
            ],
            [
              -116.80690372261958,
              45.867644852028675
            ],
            [
              -116.80835338956334,
              45.86775568400009
            ],
            [
              -116.90539154360481,
              45.87745811294679
            ],
            [
              -116.90677669118944,
              45.87763135249746
            ]
          ]
        ]
      },
      "properties": {
        "hail_size_bin": "0.5\"",
        "min_size_inches": 0.5
      }
    },
    {
      "type": "Feature",
      "geometry": {
        "type": "Polygon",
        "coordinates": [
          [
            [
              -117.82669095709576,
              53.48545985355884
            ],
            [
              -117.8261859994706,
              53.486813573395416
            ],
            [
              -117.80728417093437,
              53.53406139311825
            ],
            [
              -117.80672591485107,
              53.535363989405006
            ],
            [
              -117.80554542833306,
              53.53457986025652
            ],
            [
              -117.77155173814975,
              53.510787676983014
            ],
            [
              -117.76656708483287,
              53.50748089699457
            ],
            [
              -117.76142383911073,
              53.50442662359107
            ],
            [
              -117.75613478107842,
              53.501632446124944
            ],
            [
              -117.75071305314985,
              53.49910530765424
            ],
            [
              -117.74517212740123,
              53.4968514876903
            ],
            [
              -117.73952577209518,
              53.49487658659423
            ],
            [
              -117.73378801746887,
              53.49318551166099
            ],
            [
              -117.72797312087137,
              53.491782464925535
            ],
            [
              -117.72209553133645,
              53.49067093272153
            ],
            [
              -117.71616985367923,
              53.48985367701834
            ],
            [
              -117.71021081220572,
              53.48933272855806
            ],
            [
              -117.70423321412525,
              53.48910938180945
            ],
            [
              -117.69825191275731,
              53.489184191751356
            ],
            [
              -117.69228177062337,
              53.48955697249375
            ],
            [
              -117.68633762251606,
              53.490226797739574
            ],
            [
              -117.68043423863732,
              53.49119200308648
            ],
            [
              -117.67458628789683,
              53.49245019016255
            ],
            [
              -117.66880830146235,
              53.49399823258587
            ],
            [
              -117.66311463665213,
              53.495832283733044
            ],
            [
              -117.65751944125951,
              53.49794778629742
            ],
            [
              -117.65203661839796,
              53.5003394836132
            ],
            [
              -117.64667979195423,
              53.50300143271739
            ],
            [
              -117.64146227273531,
              53.50592701911703
            ],
            [
              -117.63639702539332,
              53.50910897322514
            ],
            [
              -117.63149663621056,
              53.51253938842433
            ],
            [
              -117.62677328182464,
              53.51620974071349
            ],
            [
              -117.62223869897173,
              53.52011090988845
            ],
            [
              -117.61790415532268,
              53.52423320220414
            ],
            [
              -117.61677672879996,
              53.52536025378606
            ],
            [
              -117.61605757280323,
              53.5241160823772
            ],
            [
              -117.55748569866402,
              53.41674965556697
            ],
            [
              -117.55683581139428,
              53.41548521110593
            ],
            [
              -117.55825628964972,
              53.415451473714285
            ],
            [
              -117.5952814372983,
              53.415451473714285
            ],
            [
              -117.59675382109145,
              53.415488052033766
            ],
            [
              -117.59774597569364,
              53.41678880655518
            ],
            [
              -117.59919604630409,
              53.41879226116664
            ],
            [
              -117.60285489678313,
              53.42336066878506
            ],
            [
              -117.60673215263674,
              53.42774523513098
            ],
            [
              -117.61081858989073,
              53.43193552934085
            ],
            [
              -117.61510448692933,
              53.43592158272366
            ],
            [
              -117.61957964762283,
              53.43969391247641
            ],
            [
              -117.62423342558412,
              53.44324354424364
            ],
            [
              -117.62905474949648,
              53.446562033467416
            ],
            [
              -117.63403214945205,
              53.44964148547684
            ],
            [
              -117.63915378423883,
              53.45247457426948
            ],
            [
              -117.64440746951075,
              53.4550545599399
            ],
            [
              -117.64978070677431,
              53.45737530471383
            ],
            [
              -117.65526071312227,
              53.45943128754993
            ],
            [
              -117.66083445164429,
              53.461217617274315
            ],
            [
              -117.6664886624416,
              53.46273004421663
            ],
            [
              -117.6722098941722,
              53.463964970320006
            ],
            [
              -117.67798453605165,
              53.46491945770082
            ],
            [
              -117.68379885023299,
              53.465591235637916
            ],
            [
              -117.68963900448902,
              53.46597870597459
            ],
            [
              -117.69549110511915,
              53.46608094692068
            ],
            [
              -117.70134123000236,
              53.46589771524542
            ],
            [
              -117.70634485445306,
              53.46549611323914
            ],
            [
              -117.70675718112571,
              53.465473221646064
            ],
            [
              -117.70820671266917,
              53.46567892656737
            ],
            [
              -117.82527056904824,
              53.48518678166423
            ],
            [
              -117.82669095709576,
              53.48545985355884
            ]
          ]
        ]
      },
      "properties": {
        "hail_size_bin": "0.5\"",
        "min_size_inches": 0.5
      }
    }
  ]
}