{
  "type": "FeatureCollection",
  "features": [
    {
      "type": "Feature",
      "geometry": {
        "type": "Polygon",
        "coordinates": [
          [
            [
              -99.58934515457143,
              32.021566370857144
            ],
            [
              -99.58934515457143,
              32.011569228285715
            ],
            [
              -99.60934229685714,
              32.011569228285715
            ],
            [
              -99.60934229685714,
              32.00157208571429
            ],
            [
              -99.619340868,
              32.00157208571429
            ],
            [
              -99.619340868,
              31.991574943142858
            ],
            [
              -99.64933658142857,
              31.991574943142858
            ],
            [
              -99.64933658142857,
              32.00157208571429
            ],
            [
              -99.62933943914285,
              32.00157208571429
            ],
            [
              -99.62933943914285,
              32.011569228285715
            ],
            [
              -99.619340868,
              32.011569228285715
            ],
            [
              -99.619340868,
              32.03156351342857
            ],
            [
              -99.63933801028571,
              32.03156351342857
            ],
            [
              -99.63933801028571,
              32.011569228285715
            ],
            [
              -99.65933515257143,
              32.011569228285715
            ],
            [
              -99.65933515257143,
              31.991574943142858
            ],
            [
              -99.66933372371429,
              31.991574943142858
            ],
            [
              -99.66933372371429,
              32.011569228285715
            ],
            [
              -99.67933229485715,
              32.011569228285715
            ],
            [
              -99.67933229485715,
              32.021566370857144
            ],
            [
              -99.689330866,
              32.021566370857144
            ],
            [
              -99.689330866,
              32.03156351342857
            ],
            [
              -99.65933515257143,
              32.03156351342857
            ],
            [
              -99.65933515257143,
              32.041560656
            ],
            [
              -99.689330866,
              32.041560656
            ],
            [
              -99.689330866,
              32.05155779857143
            ],
            [
              -99.67933229485715,
              32.05155779857143
            ],
            [
              -99.67933229485715,
              32.06155494114286
            ],
            [
              -99.66933372371429,
              32.06155494114286
            ],
            [
              -99.66933372371429,
              32.07155208371429
            ],
            [
              -99.65933515257143,
              32.07155208371429
            ],
            [
              -99.65933515257143,
              32.081549226285716
            ],
            [
              -99.64933658142857,
              32.081549226285716
            ],
            [
              -99.64933658142857,
              32.091546368857145
            ],
            [
              -99.62933943914285,
              32.091546368857145
            ],
            [
              -99.62933943914285,
              32.101543511428574
            ],
            [
              -99.619340868,
              32.101543511428574
            ],
            [
              -99.619340868,
              32.111540654
            ],
            [
              -99.60934229685714,
              32.111540654
            ],
            [
              -99.60934229685714,
              32.12153779657143
            ],
            [
              -99.56934801228572,
              32.12153779657143
            ],
            [
              -99.56934801228572,
              32.111540654
            ],
            [
              -99.54935087,
              32.111540654
            ],
            [
              -99.54935087,
              32.101543511428574
            ],
            [
              -99.53935229885714,
              32.101543511428574
            ],
            [
              -99.53935229885714,
              32.091546368857145
            ],
            [
              -99.49935801428572,
              32.091546368857145
            ],
            [
              -99.49935801428572,
              32.101543511428574
            ],
            [
              -99.479360872,
              32.101543511428574
            ],
            [
              -99.479360872,
              32.081549226285716
            ],
            [
              -99.46936230085714,
              32.081549226285716
            ],
            [
              -99.46936230085714,
              32.091546368857145
            ],
            [
              -99.43936658742857,
              32.091546368857145
            ],
            [
              -99.43936658742857,
              32.101543511428574
            ],
            [
              -99.41936944514286,
              32.101543511428574
            ],
            [
              -99.41936944514286,
              32.081549226285716
            ],
            [
              -99.409370874,
              32.081549226285716
            ],
            [
              -99.409370874,
              32.07155208371429
            ],
            [
              -99.39937230285715,
              32.07155208371429
            ],
            [
              -99.39937230285715,
              32.05155779857143
            ],
            [
              -99.409370874,
              32.05155779857143
            ],
            [
              -99.409370874,
              32.06155494114286
            ],
            [
              -99.41936944514286,
              32.06155494114286
            ],
            [
              -99.41936944514286,
              32.041560656
            ],
            [
              -99.42936801628571,
              32.041560656
            ],
            [
              -99.42936801628571,
              32.021566370857144
            ],
            [
              -99.44936515857142,
              32.021566370857144
            ],
            [
              -99.44936515857142,
              32.041560656
            ],
            [
              -99.43936658742857,
              32.041560656
            ],
            [
              -99.43936658742857,
              32.05155779857143
            ],
            [
              -99.46936230085714,
              32.05155779857143
            ],
            [
              -99.46936230085714,
              32.041560656
            ],
            [
              -99.479360872,
              32.041560656
            ],
            [
              -99.479360872,
              32.03156351342857
            ],
            [
              -99.48935944314286,
              32.03156351342857
            ],
            [
              -99.48935944314286,
              32.011569228285715
            ],
            [
              -99.51935515657144,
              32.011569228285715
            ],
            [
              -99.51935515657144,
              32.021566370857144
            ],
            [
              -99.50935658542858,
              32.021566370857144
            ],
            [
              -99.50935658542858,
              32.03156351342857
            ],
            [
              -99.51935515657144,
              32.03156351342857
            ],
            [
              -99.51935515657144,
              32.05155779857143
            ],
            [
              -99.54935087,
              32.05155779857143
            ],
            [
              -99.54935087,
              32.041560656
            ],
            [
              -99.55934944114286,
              32.041560656
            ],
            [
              -99.55934944114286,
              32.03156351342857
            ],
            [
              -99.57934658342857,
              32.03156351342857
            ],
            [
              -99.57934658342857,
              32.021566370857144
            ],
            [
              -99.58934515457143,
              32.021566370857144
            ]
          ],
          [
            [
              -99.57934658342857,
              32.05155779857143
            ],
            [
              -99.59934372571429,
              32.05155779857143
            ],
            [
              -99.59934372571429,
              32.03156351342857
            ],
            [
              -99.57934658342857,
              32.03156351342857
            ],
            [
              -99.57934658342857,
              32.05155779857143
            ]
          ]
        ]
      },
      "properties": {
        "hail_size_bin": "1.0\"",
        "min_size_inches": 1.0
      }
    },
    {
      "type": "Feature",
      "geometry": {
        "type": "Polygon",
        "coordinates": [
          [
            [
              -99.01942659942857,
              31.791632091714288
            ],
            [
              -99.04942231285715,
              31.791632091714288
            ],
            [
              -99.04942231285715,
              31.78163494914286
            ],
            [
              -99.059420884,
              31.78163494914286
            ],
            [
              -99.059420884,
              31.761640664
            ],
            [
              -99.09941516857143,
              31.761640664
            ],
            [
              -99.09941516857143,
              31.751643521428573
            ],
            [
              -99.16940516657144,
              31.751643521428573
            ],
            [
              -99.16940516657144,
              31.741646378857144
            ],
            [
              -99.18940230885714,
              31.741646378857144
            ],
            [
              -99.18940230885714,
              31.77163780657143
            ],
            [
              -99.15940659542858,
              31.77163780657143
            ],
            [
              -99.15940659542858,
              31.761640664
            ],
            [
              -99.14940802428572,
              31.761640664
            ],
            [
              -99.14940802428572,
              31.77163780657143
            ],
            [
              -99.13940945314286,
              31.77163780657143
            ],
            [
              -99.13940945314286,
              31.78163494914286
            ],
            [
              -99.129410882,
              31.78163494914286
            ],
            [
              -99.129410882,
              31.791632091714288
            ],
            [
              -99.10941373971428,
              31.791632091714288
            ],
            [
              -99.10941373971428,
              31.78163494914286
            ],
            [
              -99.09941516857143,
              31.78163494914286
            ],
            [
              -99.09941516857143,
              31.791632091714288
            ],
            [
              -99.06941945514285,
              31.791632091714288
            ],
            [
              -99.06941945514285,
              31.801629234285716
            ],
            [
              -99.03942374171429,
              31.801629234285716
            ],
            [
              -99.03942374171429,
              31.811626376857145
            ],
            [
              -99.02942517057143,
              31.811626376857145
            ],
            [
              -99.02942517057143,
              31.801629234285716
            ],
            [
              -99.01942659942857,
              31.801629234285716
            ],
            [
              -99.01942659942857,
              31.791632091714288
            ]
          ]
        ]
      },
      "properties": {
        "hail_size_bin": "0.5\"",
        "min_size_inches": 0.5
      }
    },
    {
      "type": "Feature",
      "geometry": {
        "type": "Polygon",
        "coordinates": [
          [
            [
              -98.08955948314286,
              32.661383495428574
            ],
            [
              -98.10955662542857,
              32.661383495428574
            ],
            [
              -98.10955662542857,
              32.651386352857145
            ],
            [
              -98.13955233885714,
              32.651386352857145
            ],
            [
              -98.13955233885714,
              32.671380638
            ],
            [
              -98.12955376771428,
              32.671380638
            ],
            [
              -98.12955376771428,
              32.68137778057143
            ],
            [
              -98.09955805428572,
              32.68137778057143
            ],
            [
              -98.09955805428572,
              32.69137492314286
            ],
            [
              -98.06956234085715,
              32.69137492314286
            ],
            [
              -98.06956234085715,
              32.68137778057143
            ],
            [
              -98.08955948314286,
              32.68137778057143
            ],
            [
              -98.08955948314286,
              32.661383495428574
            ]
          ]
        ]
      },
      "properties": {
        "hail_size_bin": "0.5\"",
        "min_size_inches": 0.5
      }
    }
  ]
}